STARLINK-32150          
1 60294U 24132S   25104.80397526 -.00000163  00000+0  66363-5 0  9994
2 60294  53.1598 140.2740 0001448  84.8253 275.2913 15.30198461 41203
STARLINK-32126          
1 60295U 24132T   25104.81663674 -.00000136  00000+0  75238-5 0  9997
2 60295  53.1589 140.3522 0000745  97.3944 262.7142 15.30212020 41201
STARLINK-32143          
1 60296U 24132U   25104.80714499 -.00001562  00000+0 -40619-4 0  9998
2 60296  53.1600 140.2967 0001503  87.5604 272.5569 15.30199609 41204
STARLINK-32034          
1 60297U 24132V   25104.79342426  .00001352  00000+0  57777-4 0  9992
2 60297  53.1594 140.2085 0001237  91.1928 268.9215 15.30196996 41205
STARLINK-32124          
1 60298U 24132W   25104.47948904  .00002496  00000+0  96349-4 0  9999
2 60298  53.1595 141.8049 0001165  96.4422 263.6711 15.30210683 41158
STARLINK-32151          
1 60299U 24132X   25105.00445778  .00001774  00000+0  72041-4 0  9992
2 60299  53.1623 110.6952 0001886 279.8275  80.2512 15.30183199 41626
STARLINK-32134          
1 60300U 24132Y   25104.39203794  .00001360  00000+0  58062-4 0  9994
2 60300  53.1592 141.9682 0001186  80.2138 279.8997 15.30189693 41141
STARLINK-11147 [DTC]    
1 60301U 24133A   25104.91714314 -.00011062  00000+0 -86599-4 0  9997
2 60301  53.1571 327.1752 0001295  64.8212 295.2940 15.69699470 42127
STARLINK-11128 [DTC]    
1 60302U 24133B   25104.91222110  .00000777  00000+0  11260-4 0  9998
2 60302  53.1588 327.1426 0000993  98.3536 261.7594 15.69724522 42095
STARLINK-11227 [DTC]    
1 60303U 24133C   25104.90732519  .00007699  00000+0  68314-4 0  9999
2 60303  53.1573 327.1121 0001307 124.3768 235.7373 15.69722406 42184
STARLINK-11224 [DTC]    
1 60304U 24133D   25104.90241829  .00007936  00000+0  70262-4 0  9998
2 60304  53.1569 327.0753 0000828  97.4528 262.6584 15.69721857 42172
STARLINK-11115 [DTC]    
1 60305U 24133E   25104.89750978  .00000183  00000+0  63681-5 0  9992
2 60305  53.1577 327.0443 0001029  63.9286 296.1837 15.69720351 42138
STARLINK-11109 [DTC]    
1 60306U 24133F   25104.89260049 -.00000061  00000+0  43546-5 0  9992
2 60306  53.1584 327.0103 0001162  81.8857 278.2292 15.69723480 42133
STARLINK-11223 [DTC]    
1 60307U 24133G   25105.01014030 -.00003040  00000+0 -20249-4 0  9990
2 60307  53.1579 326.3153 0001086 108.4676 251.6460 15.69706863 42098
STARLINK-11192 [DTC]    
1 60308U 24133H   25105.01505716 -.00007896  00000+0 -60374-4 0  9993
2 60308  53.1585 326.3497 0000954  72.2939 287.8182 15.69710720 42167
STARLINK-11213 [DTC]    
1 60309U 24133J   25105.00523377 -.00000176  00000+0  34039-5 0  9999
2 60309  53.1589 326.2833 0001087  99.6376 260.4765 15.69704816 42007
STARLINK-11200 [DTC]    
1 60310U 24133K   25105.00032460 -.00003033  00000+0 -20184-4 0  9990
2 60310  53.1569 326.2499 0000790  63.4954 296.6145 15.69711597 42160
STARLINK-11208 [DTC]    
1 60311U 24133L   25105.12227702  .00093784  00000+0  74749-3 0  9994
2 60311  53.1561 326.3218 0000605 156.7619 203.3426 15.70432002 41970
STARLINK-11206 [DTC]    
1 60312U 24133M   25104.99060327 -.00003714  00000+0 -25800-4 0  9998
2 60312  53.1587 326.9208 0001540  76.8339 283.2851 15.69710907 42076
STARLINK-11205 [DTC]    
1 60313U 24133N   25104.92203896  .00011919  00000+0  10304-3 0  9998
2 60313  53.1574 327.1976 0001812 121.3067 238.8128 15.69723204 41980
STARLINK-32191          
1 60314U 24133P   25105.03382747 -.00002173  00000+0 -61304-4 0  9996
2 60314  53.1617  23.4919 0001364  89.1043 271.0114 15.30183061 41386
STARLINK-32194          
1 60315U 24133Q   25105.04859394  .00000605  00000+0  32552-4 0  9994
2 60315  53.1612  23.5847 0001118 105.2072 254.9052 15.30190658 41361
STARLINK-32192          
1 60316U 24133R   25105.07697521 -.00003465  00000+0 -10493-3 0  9998
2 60316  53.1611  23.0514 0001092  92.6421 267.4704 15.30198031 41428
STARLINK-32189          
1 60317U 24133S   25104.91585043  .00004955  00000+0  17931-3 0  9993
2 60317  53.1615  24.1760 0001352  65.0429 295.0712 15.30203109 41394
STARLINK-32190          
1 60318U 24133T   25105.03699212  .00000594  00000+0  32204-4 0  9998
2 60318  53.1612  23.5103 0001365  68.0410 292.0736 15.30176523 41418
STARLINK-32182          
1 60319U 24133U   25105.04755470 -.00005116  00000+0 -16076-3 0  9994
2 60319  53.1624  23.5804 0001313  87.2238 272.8913 15.30189852 41371
STARLINK-32199          
1 60320U 24133V   25105.04016455 -.00001337  00000+0 -33064-4 0  9997
2 60320  53.1621  23.5290 0001378  78.2564 281.8591 15.30173914 41365
STARLINK-32198          
1 60321U 24133W   25105.04967427 -.00003684  00000+0 -11246-3 0  9996
2 60321  53.1621  23.5917 0000781  38.3473 321.7583 15.30160163 41418
STARLINK-31745          
1 60329U 24136A   25104.85301888 -.00001016  00000+0 -22212-4 0  9991
2 60329  53.1590 163.4046 0000863  85.9622 274.1478 15.30183305 40510
STARLINK-32153          
1 60330U 24136B   25104.85194851  .00000636  00000+0  33610-4 0  9992
2 60330  53.1598 163.3993 0001165  79.6161 280.4971 15.30195086 39317
STARLINK-32203          
1 60331U 24136C   25104.42427098 -.00001403  00000+0 -35258-4 0  9993
2 60331  53.1597 155.0555 0001156  89.1031 271.0102 15.30197257 39393
STARLINK-32171          
1 60332U 24136D   25104.91670139 -.00061675  00000+0 -20856-2 0  9997
2 60332  53.1580 162.5638 0001498  89.7368 180.6579 15.30227418  5837
STARLINK-32133          
1 60333U 24136E   25104.45373238  .00000454  00000+0  27469-4 0  9992
2 60333  53.1595 165.1770 0001165  72.0456 288.0672 15.30189962 39255
STARLINK-32132          
1 60334U 24136F   25104.44739502  .00001585  00000+0  65644-4 0  9995
2 60334  53.1595 165.1432 0001392  86.5197 273.5963 15.30195733 39250
STARLINK-32168          
1 60335U 24136G   25104.44422100 -.00002169  00000+0 -61120-4 0  9995
2 60335  53.1576 165.1164 0001518  79.1746 280.9425 15.30195418 39255
STARLINK-32079          
1 60336U 24136H   25103.46135032 -.00001719  00000+0 -45971-4 0  9998
2 60336  53.1598 169.6475 0001047  56.7059 303.4042 15.30183360 39102
STARLINK-32078          
1 60338U 24136K   25104.43684509 -.00000398  00000+0 -13030-5 0  9990
2 60338  53.1599 165.0743 0001204  80.6873 279.4264 15.30190340 39258
STARLINK-32175          
1 60339U 24136L   25104.43473789 -.00001941  00000+0 -53405-4 0  9991
2 60339  53.1601 165.0622 0001390  75.8146 284.3009 15.30208128 39250
STARLINK-32176          
1 60340U 24136M   25104.56219704  .00000779  00000+0  38426-4 0  9994
2 60340  53.1597 164.4292 0001320  95.7009 264.4142 15.30190202 40447
STARLINK-32185          
1 60341U 24136N   25104.88138134  .00002184  00000+0  85839-4 0  9999
2 60341  53.1584 162.8672 0001453  89.5274 270.5893 15.30201001 39326
STARLINK-32221          
1 60342U 24136P   25104.42735190 -.00000098  00000+0  88255-5 0  9994
2 60342  53.1600 165.0149 0001230  86.5873 273.5268 15.30184160 39252
STARLINK-32083          
1 60343U 24136Q   25104.42840115 -.00001187  00000+0 -27949-4 0  9992
2 60343  53.1599 164.9850 0001534  70.8135 289.3032 15.30205129 39254
STARLINK-32077          
1 60344U 24136R   25104.87821457  .00000579  00000+0  31675-4 0  9993
2 60344  53.1600 162.8464 0001446  95.7366 264.3800 15.30195560 40480
STARLINK-32075          
1 60345U 24136S   25104.87399297  .00000283  00000+0  21682-4 0  9995
2 60345  53.1609 162.8183 0001058  99.9497 260.1623 15.30196318 39328
STARLINK-32082          
1 60346U 24136T   25104.87504971  .00001259  00000+0  54619-4 0  9993
2 60346  53.1615 162.8265 0001324  92.7304 267.3849 15.30199594 39329
STARLINK-32084          
1 60347U 24136U   25103.50027073  .00000669  00000+0  34719-4 0  9999
2 60347  53.1605 169.1752 0001120 107.0026 253.1098 15.30195581 39113
STARLINK-32081          
1 60348U 24136V   25104.86871845  .00000998  00000+0  45812-4 0  9995
2 60348  53.1602 162.7848 0001019 100.7407 259.3708 15.30195110 40538
STARLINK-32181          
1 60349U 24136W   25104.85922342  .00000037  00000+0  13390-4 0  9994
2 60349  53.1592 162.7253 0001498  87.9772 272.1400 15.30193111 40271
STARLINK-32076          
1 60350U 24136X   25104.86238732  .00001296  00000+0  55875-4 0  9992
2 60350  53.1598 162.7434 0001314  98.2786 261.8364 15.30197247 40488
STARLINK-32097          
1 60351U 24136Y   25104.85605466 -.00000645  00000+0 -96609-5 0  9994
2 60351  53.1595 162.7049 0001223  95.7333 264.3807 15.30198590 39320
STARLINK-32285          
1 60355U 24138A   25104.18522228  .00000807  00000+0  39379-4 0  9998
2 60355  53.1627  39.7916 0001504  86.1256 273.9917 15.30189578 40186
STARLINK-32278          
1 60356U 24138B   25105.09657441 -.00002286  00000+0 -65108-4 0  9990
2 60356  53.1618  36.2243 0001326  82.2485 277.8667 15.30184909 40307
STARLINK-32287          
1 60358U 24138D   25104.83213131  .00001142  00000+0  50657-4 0  9998
2 60358  53.1622  37.4299 0001256  76.1623 283.9518 15.30206887 40275
STARLINK-32290          
1 60359U 24138E   25105.09552205 -.00000342  00000+0  57461-6 0  9990
2 60359  53.1630  36.2313 0001436  83.5881 276.5283 15.30180927 40247
STARLINK-32275          
1 60360U 24138F   25105.06596085  .00001442  00000+0  60790-4 0  9991
2 60360  53.1621  36.0430 0001120  83.4177 276.6952 15.30201176 40305
STARLINK-32227          
1 60361U 24138G   25105.08918235  .00001136  00000+0  50518-4 0  9996
2 60361  53.1622  36.1769 0001365  78.5477 281.5677 15.30180509 40318
STARLINK-32256          
1 60362U 24138H   25104.50662396  .00000966  00000+0  44754-4 0  9992
2 60362  53.1617  38.9420 0001207  82.7996 277.3142 15.30194546 40210
STARLINK-32267          
1 60363U 24138J   25105.08384944  .00012453  00000+0  43107-3 0  9991
2 60363  53.1615  36.1538 0001152  86.3458 273.7675 15.30259142 40306
STARLINK-32270          
1 60364U 24138K   25105.07546049  .00001284  00000+0  55502-4 0  9990
2 60364  53.1622  36.1034 0001384  71.6210 288.4941 15.30190937 40187
